{
"type": "FeatureCollection",
"name": "roads",
"crs": { "type": "name", "properties": { "name": "urn:ogc:def:crs:OGC:1.3:CRS84" } },
"features": [
{ "type": "Feature", "properties": { "osm_id": 535720259, "tag_value": "path" }, "geometry": { "type": "LineString", "coordinates": [ [ 92.1515836, 21.2002806 ], [ 92.1515916, 21.2002244 ], [ 92.1516022, 21.2001846 ], [ 92.1516713, 21.200147 ], [ 92.1517065, 21.2001248 ], [ 92.15173, 21.2000738 ], [ 92.1517382, 21.2000444 ], [ 92.1517476, 21.2000071 ], [ 92.151762, 21.1999722 ], [ 92.1517646, 21.1999359 ], [ 92.1517685, 21.1999029 ] ] } },
{ "type": "Feature", "properties": { "osm_id": 535720269, "tag_value": "path" }, "geometry": { "type": "LineString", "coordinates": [ [ 92.1513028, 21.2001874 ], [ 92.1512513, 21.2001504 ], [ 92.1511414, 21.1998962 ], [ 92.1510909, 21.1999244 ], [ 92.1510176, 21.1999556 ], [ 92.1509505, 21.1999893 ], [ 92.1509063, 21.1999931 ], [ 92.1508339, 21.1999681 ], [ 92.1507159, 21.2000381 ], [ 92.1506649, 21.2000731 ], [ 92.1506394, 21.2001056 ], [ 92.1506126, 21.2001557 ] ] } },
{ "type": "Feature", "properties": { "osm_id": 535721907, "tag_value": "path" }, "geometry": { "type": "LineString", "coordinates": [ [ 92.1518049, 21.1993224 ], [ 92.151805, 21.1993002 ], [ 92.1518111, 21.1992722 ], [ 92.1517648, 21.1992594 ], [ 92.1517818, 21.1992495 ], [ 92.1518062, 21.1992467 ], [ 92.1518438, 21.1992044 ], [ 92.1519281, 21.1991583 ] ] } },
{ "type": "Feature", "properties": { "osm_id": 535724585, "tag_value": "residential" }, "geometry": { "type": "LineString", "coordinates": [ [ 92.1529086, 21.2013078 ], [ 92.152871, 21.2013279 ], [ 92.1528052, 21.2013675 ], [ 92.152747, 21.201396 ], [ 92.1525298, 21.2014498 ], [ 92.1524965, 21.2014456 ], [ 92.1522888, 21.2014613 ], [ 92.1521812, 21.2014795 ], [ 92.1521308, 21.201511 ], [ 92.1520986, 21.2015298 ], [ 92.1520268, 21.2015986 ], [ 92.1519732, 21.2016404 ], [ 92.1518666, 21.2016948 ], [ 92.151833, 21.2017048 ], [ 92.1518102, 21.2017048 ], [ 92.1517472, 21.2016986 ], [ 92.1516627, 21.2016923 ], [ 92.1515849, 21.2016861 ], [ 92.1515387, 21.2016711 ], [ 92.1515165, 21.2016654 ], [ 92.1515065, 21.2016417 ], [ 92.1515024, 21.2016061 ], [ 92.1515045, 21.2015748 ], [ 92.1514719, 21.2015626 ], [ 92.1514488, 21.2015601 ], [ 92.1514119, 21.2015635 ], [ 92.1513475, 21.2015798 ], [ 92.1512832, 21.2016061 ], [ 92.1512268, 21.2016048 ], [ 92.1511705, 21.2016011 ], [ 92.1511269, 21.2016035 ], [ 92.1511249, 21.2016036 ], [ 92.1510914, 21.2015823 ], [ 92.1510565, 21.201551 ], [ 92.1510056, 21.2015285 ], [ 92.1509546, 21.2015173 ], [ 92.1509197, 21.2015298 ], [ 92.1508996, 21.2015598 ], [ 92.1508943, 21.2016123 ], [ 92.1508983, 21.2016536 ], [ 92.1509063, 21.2016986 ], [ 92.1509157, 21.2017348 ], [ 92.1508875, 21.2017686 ], [ 92.1508768, 21.2018024 ] ] } },
{ "type": "Feature", "properties": { "osm_id": 536063071, "tag_value": "residential" }, "geometry": { "type": "LineString", "coordinates": [ [ 92.1505577, 21.2011841 ], [ 92.1505084, 21.201119 ], [ 92.1504919, 21.2010934 ], [ 92.150449, 21.2010609 ], [ 92.150386, 21.2010172 ], [ 92.150335, 21.2009672 ], [ 92.150279, 21.2009079 ], [ 92.1502452, 21.200872 ] ] } },
{ "type": "Feature", "properties": { "osm_id": 536063072, "tag_value": "residential" }, "geometry": { "type": "LineString", "coordinates": [ [ 92.1515045, 21.2015748 ], [ 92.1515608, 21.2015123 ], [ 92.1515755, 21.2014723 ], [ 92.1515769, 21.2014298 ], [ 92.1515594, 21.2013723 ], [ 92.1515674, 21.2013184 ], [ 92.1515737, 21.2012963 ], [ 92.1515863, 21.2012522 ], [ 92.1515836, 21.2012235 ], [ 92.151568, 21.2011992 ], [ 92.1515655, 21.2011953 ], [ 92.1515675, 21.2011484 ], [ 92.1515688, 21.2010996 ], [ 92.1515876, 21.2010578 ], [ 92.151613, 21.2010196 ], [ 92.1514727, 21.2010026 ], [ 92.1513956, 21.2009991 ], [ 92.1513535, 21.2010006 ] ] } },
{ "type": "Feature", "properties": { "osm_id": 536063112, "tag_value": "residential" }, "geometry": { "type": "LineString", "coordinates": [ [ 92.1506462, 21.201276 ], [ 92.1506247, 21.2012441 ], [ 92.1506062, 21.2011983 ], [ 92.1505939, 21.2011859 ], [ 92.1505577, 21.2011841 ], [ 92.1504671, 21.2012103 ], [ 92.1503216, 21.2012147 ], [ 92.1502586, 21.2012447 ], [ 92.1502264, 21.2012678 ], [ 92.1501379, 21.2012828 ], [ 92.1500835, 21.201306 ], [ 92.150052, 21.2013179 ], [ 92.1499657, 21.2013433 ], [ 92.1499447, 21.2013439 ], [ 92.1499312, 21.201342 ], [ 92.1499099, 21.2013402 ], [ 92.1498848, 21.2013397 ], [ 92.1498443, 21.2013233 ], [ 92.1498093, 21.2013085 ], [ 92.1497698, 21.2012809 ], [ 92.1497188, 21.2012797 ], [ 92.1496712, 21.201296 ], [ 92.1496008, 21.2013259 ], [ 92.1494659, 21.2013304 ], [ 92.149423, 21.2013366 ], [ 92.1493628, 21.2013484 ], [ 92.1493184, 21.2013553 ], [ 92.1492614, 21.2013573 ], [ 92.1492284, 21.2013508 ], [ 92.1492098, 21.2013472 ], [ 92.1491447, 21.2013397 ], [ 92.1490341, 21.2013166 ], [ 92.1489691, 21.2013234 ], [ 92.1487471, 21.201436 ], [ 92.1487164, 21.2014772 ], [ 92.1486646, 21.2015928 ], [ 92.1485822, 21.2017623 ] ] } },
{ "type": "Feature", "properties": { "osm_id": 553671643, "tag_value": "path" }, "geometry": { "type": "LineString", "coordinates": [ [ 92.1490569, 21.1993379 ], [ 92.1490395, 21.1993167 ], [ 92.1490127, 21.1993092 ], [ 92.1489859, 21.1993129 ], [ 92.1489671, 21.1993042 ], [ 92.1489604, 21.1992804 ], [ 92.1489644, 21.1992554 ], [ 92.1489537, 21.1992317 ], [ 92.148951, 21.1991954 ], [ 92.1489523, 21.1991454 ], [ 92.1489657, 21.1991191 ], [ 92.1489859, 21.1990866 ], [ 92.1489939, 21.1990604 ], [ 92.1489657, 21.1990529 ], [ 92.1489523, 21.1990278 ], [ 92.1489376, 21.1990066 ], [ 92.1489161, 21.1989978 ], [ 92.1488799, 21.1989978 ], [ 92.1488491, 21.1990128 ], [ 92.1487994, 21.1990253 ], [ 92.1487632, 21.1990278 ], [ 92.148719, 21.1990278 ], [ 92.1486828, 21.1990366 ], [ 92.1486291, 21.1990441 ] ] } },
{ "type": "Feature", "properties": { "osm_id": 553671648, "tag_value": "path" }, "geometry": { "type": "LineString", "coordinates": [ [ 92.1487525, 21.1999 ], [ 92.1488705, 21.1999056 ], [ 92.1489282, 21.1999193 ], [ 92.1489684, 21.1999294 ], [ 92.149002, 21.1999193 ], [ 92.1490395, 21.1999294 ], [ 92.1490596, 21.1999181 ], [ 92.1491079, 21.1999306 ], [ 92.1491561, 21.1999394 ], [ 92.1491817, 21.1999469 ], [ 92.1492192, 21.1999556 ], [ 92.1492527, 21.1999731 ], [ 92.149301, 21.1999794 ], [ 92.1493345, 21.1999769 ], [ 92.1493748, 21.1999756 ], [ 92.1494231, 21.1999856 ], [ 92.14947, 21.1999881 ], [ 92.149521, 21.1999869 ], [ 92.1495786, 21.1999681 ], [ 92.1496269, 21.1999794 ], [ 92.1496698, 21.2000006 ] ] } },
{ "type": "Feature", "properties": { "osm_id": 553679100, "tag_value": "path" }, "geometry": { "type": "LineString", "coordinates": [ [ 92.1521308, 21.201511 ], [ 92.1520959, 21.2014573 ], [ 92.1520731, 21.2014323 ], [ 92.1520449, 21.201401 ], [ 92.1520087, 21.201376 ], [ 92.1520033, 21.2013535 ], [ 92.1519886, 21.2013147 ], [ 92.1519671, 21.2012772 ], [ 92.1519671, 21.2012222 ], [ 92.1519712, 21.2011722 ], [ 92.1519671, 21.2011397 ], [ 92.1519751, 21.2011091 ], [ 92.1519698, 21.2010071 ], [ 92.1519584, 21.2009602 ], [ 92.1519524, 21.2009027 ], [ 92.1519249, 21.2008583 ] ] } },
{ "type": "Feature", "properties": { "osm_id": 553679106, "tag_value": "path" }, "geometry": { "type": "LineString", "coordinates": [ [ 92.1521603, 21.2002257 ], [ 92.1519996, 21.2001826 ], [ 92.1519762, 21.2001901 ], [ 92.1519027, 21.2001801 ], [ 92.1518438, 21.2002194 ], [ 92.1517874, 21.2002419 ], [ 92.1517418, 21.2002657 ], [ 92.1517043, 21.2002941 ], [ 92.1517639, 21.200367 ] ] } },
{ "type": "Feature", "properties": { "osm_id": 553679108, "tag_value": "path" }, "geometry": { "type": "LineString", "coordinates": [ [ 92.1523396, 21.1997766 ], [ 92.1522971, 21.1997787 ], [ 92.1522588, 21.1997793 ], [ 92.1522455, 21.1997995 ], [ 92.1522244, 21.1998315 ], [ 92.1521747, 21.1999984 ], [ 92.1521435, 21.1999919 ], [ 92.1520221, 21.1999443 ], [ 92.1519872, 21.1999256 ], [ 92.1519404, 21.1999081 ], [ 92.1518906, 21.1998937 ], [ 92.1518397, 21.1998781 ], [ 92.1518076, 21.1998681 ], [ 92.1517797, 21.1998826 ], [ 92.1517685, 21.1999029 ] ] } },
{ "type": "Feature", "properties": { "osm_id": 553679110, "tag_value": "path" }, "geometry": { "type": "LineString", "coordinates": [ [ 92.1522582, 21.1975737 ], [ 92.1522541, 21.1976034 ], [ 92.1522635, 21.1976409 ], [ 92.1523504, 21.1977613 ], [ 92.1523527, 21.197805 ], [ 92.1523557, 21.1978163 ], [ 92.1523363, 21.1979557 ], [ 92.1522998, 21.1979994 ], [ 92.1522816, 21.1981172 ], [ 92.1521284, 21.1981945 ], [ 92.1520248, 21.1982439 ], [ 92.1519698, 21.1982614 ], [ 92.1519256, 21.1982776 ], [ 92.1518826, 21.1983014 ], [ 92.1518464, 21.1983051 ], [ 92.1518183, 21.1982989 ], [ 92.1517727, 21.1983302 ], [ 92.1517481, 21.1983602 ], [ 92.1517343, 21.1983719 ], [ 92.1517065, 21.198372 ], [ 92.1517023, 21.1984367 ], [ 92.1516902, 21.1985074 ], [ 92.1516792, 21.1985501 ], [ 92.1516842, 21.1986166 ], [ 92.1516814, 21.19863 ], [ 92.1517033, 21.1987073 ], [ 92.1517412, 21.1987904 ], [ 92.1517796, 21.1988909 ], [ 92.1517937, 21.1989563 ], [ 92.1518169, 21.1990178 ], [ 92.1518612, 21.1990891 ], [ 92.1519281, 21.1991583 ], [ 92.1519759, 21.1992117 ], [ 92.1520144, 21.1992267 ], [ 92.1520563, 21.1992535 ], [ 92.1521039, 21.1992918 ], [ 92.1522126, 21.1993486 ], [ 92.1523185, 21.1993536 ], [ 92.1523643, 21.1993505 ], [ 92.1523976, 21.1993526 ], [ 92.1524466, 21.1993489 ], [ 92.1524855, 21.1993317 ], [ 92.1525557, 21.1993031 ], [ 92.1526238, 21.1992875 ], [ 92.1526955, 21.1992997 ], [ 92.1527121, 21.199301 ], [ 92.1527706, 21.1993145 ], [ 92.1528415, 21.199326 ], [ 92.1529589, 21.1993497 ], [ 92.153032, 21.1993846 ], [ 92.1530852, 21.1994088 ], [ 92.1531284, 21.1994376 ], [ 92.1532281, 21.1994891 ], [ 92.1532728, 21.1995025 ], [ 92.1533274, 21.1995232 ], [ 92.153341, 21.1995284 ], [ 92.1534642, 21.1995667 ], [ 92.1535007, 21.1995752 ], [ 92.1535588, 21.1995841 ], [ 92.1536142, 21.1995974 ], [ 92.1536811, 21.1996245 ], [ 92.1537243, 21.1996372 ], [ 92.1538712, 21.1996834 ], [ 92.1539906, 21.1997361 ], [ 92.1540238, 21.1997506 ], [ 92.1540912, 21.1997707 ], [ 92.1541864, 21.1998031 ], [ 92.1542412, 21.1997871 ], [ 92.1542746, 21.199779 ] ] } },
{ "type": "Feature", "properties": { "osm_id": 553679119, "tag_value": "path" }, "geometry": { "type": "LineString", "coordinates": [ [ 92.1518169, 21.1990178 ], [ 92.1517713, 21.1990366 ], [ 92.1517244, 21.1990404 ], [ 92.1516667, 21.1990423 ], [ 92.1516419, 21.1990247 ], [ 92.1516158, 21.1989928 ], [ 92.1515621, 21.1989528 ], [ 92.1515433, 21.1989166 ], [ 92.1515179, 21.1988728 ], [ 92.1515071, 21.1988353 ], [ 92.1515232, 21.1988153 ], [ 92.1515595, 21.1988034 ], [ 92.1515889, 21.1988221 ], [ 92.1516151, 21.1988759 ] ] } },
{ "type": "Feature", "properties": { "osm_id": 553728201, "tag_value": "residential" }, "geometry": { "type": "LineString", "coordinates": [ [ 92.1498566, 21.199395 ], [ 92.1499447, 21.1994303 ], [ 92.149981, 21.1994417 ], [ 92.1500125, 21.1994467 ], [ 92.1501057, 21.1994492 ], [ 92.1501359, 21.1994505 ], [ 92.1501929, 21.1994623 ], [ 92.150215, 21.1994942 ], [ 92.1502304, 21.1995229 ], [ 92.1502512, 21.1995867 ], [ 92.1502827, 21.1996643 ], [ 92.1503055, 21.1996981 ], [ 92.1503331, 21.1997368 ], [ 92.1503438, 21.1997511 ], [ 92.1503592, 21.1997718 ], [ 92.1503792, 21.1997981 ], [ 92.1504068, 21.1998306 ], [ 92.1504302, 21.1998581 ], [ 92.1504511, 21.1998799 ], [ 92.1504752, 21.1998981 ], [ 92.1504966, 21.1999156 ], [ 92.1505214, 21.1999362 ], [ 92.1505382, 21.1999556 ], [ 92.150551, 21.1999788 ], [ 92.1505664, 21.2000094 ], [ 92.150563, 21.2000519 ], [ 92.1505643, 21.2000931 ], [ 92.1505844, 21.2001232 ], [ 92.1506126, 21.2001557 ], [ 92.150677, 21.2001932 ], [ 92.150732, 21.2002132 ], [ 92.1507615, 21.2002007 ], [ 92.1507896, 21.2001894 ], [ 92.1508312, 21.2001819 ], [ 92.1508781, 21.200187 ], [ 92.1509452, 21.2002107 ], [ 92.151007, 21.2002669 ], [ 92.1510471, 21.2002983 ], [ 92.1510766, 21.2003307 ], [ 92.1510927, 21.2003545 ], [ 92.1511129, 21.2003795 ], [ 92.1511316, 21.2004057 ], [ 92.151145, 21.200432 ], [ 92.1511638, 21.2004633 ], [ 92.1511813, 21.2004946 ], [ 92.151208, 21.2005158 ], [ 92.1512376, 21.2005408 ], [ 92.1512684, 21.2005646 ], [ 92.1512872, 21.2005921 ], [ 92.151318, 21.200622 ], [ 92.1513516, 21.2006446 ], [ 92.1513999, 21.2006846 ], [ 92.1514445, 21.2006986 ], [ 92.1515433, 21.2007446 ], [ 92.1515649, 21.2007689 ], [ 92.1515702, 21.2007971 ], [ 92.1515571, 21.2008534 ] ] } },
{ "type": "Feature", "properties": { "osm_id": 553728210, "tag_value": "path" }, "geometry": { "type": "LineString", "coordinates": [ [ 92.1493158, 21.2005983 ], [ 92.1493788, 21.2006445 ], [ 92.1493976, 21.2006233 ], [ 92.1494365, 21.2006095 ], [ 92.1494472, 21.2005708 ], [ 92.1494754, 21.200547 ], [ 92.1495062, 21.2005245 ], [ 92.149529, 21.2005045 ], [ 92.1495384, 21.2004833 ], [ 92.1495434, 21.2004667 ], [ 92.1495478, 21.2004551 ], [ 92.1495505, 21.2004485 ], [ 92.1495535, 21.2004414 ], [ 92.1495525, 21.2004376 ] ] } },
{ "type": "Feature", "properties": { "osm_id": 553728212, "tag_value": "path" }, "geometry": { "type": "LineString", "coordinates": [ [ 92.1492964, 21.2022557 ], [ 92.1493573, 21.2022137 ], [ 92.1493453, 21.2021887 ], [ 92.1493413, 21.2021649 ], [ 92.149356, 21.2021412 ], [ 92.1493748, 21.2021137 ], [ 92.1494056, 21.2020687 ], [ 92.1494217, 21.2020362 ], [ 92.1494351, 21.2020037 ], [ 92.1494687, 21.2019812 ], [ 92.1494941, 21.2019436 ], [ 92.1495277, 21.2019174 ], [ 92.1495625, 21.2018999 ], [ 92.1495894, 21.2018736 ], [ 92.1496175, 21.2018599 ], [ 92.1496524, 21.2018499 ], [ 92.1496859, 21.2018374 ], [ 92.1497127, 21.2018174 ], [ 92.1497503, 21.2017961 ], [ 92.1497811, 21.2017786 ], [ 92.1498147, 21.2017761 ], [ 92.1498281, 21.2017648 ], [ 92.1498589, 21.2017461 ], [ 92.1498965, 21.2017423 ], [ 92.1499139, 21.2017236 ], [ 92.1499407, 21.2017198 ], [ 92.1499635, 21.2017023 ], [ 92.1499702, 21.2016711 ], [ 92.1499836, 21.2016423 ], [ 92.1500185, 21.2016348 ], [ 92.150044, 21.2016273 ], [ 92.1500614, 21.2016136 ], [ 92.1500869, 21.2015948 ] ] } },
{ "type": "Feature", "properties": { "osm_id": 553728216, "tag_value": "path" }, "geometry": { "type": "LineString", "coordinates": [ [ 92.1504396, 21.2015998 ], [ 92.1503873, 21.2016223 ], [ 92.1503752, 21.2016423 ], [ 92.1503779, 21.2016761 ], [ 92.1503793, 21.2017211 ], [ 92.150386, 21.2017698 ], [ 92.1503864, 21.2017855 ], [ 92.1503873, 21.2018211 ], [ 92.1503846, 21.2018661 ], [ 92.1503659, 21.2018899 ], [ 92.1503511, 21.2019311 ], [ 92.150335, 21.2019812 ], [ 92.1503296, 21.2020237 ], [ 92.150331, 21.2020674 ], [ 92.1503189, 21.2020987 ], [ 92.1503095, 21.2021324 ], [ 92.1503149, 21.2021725 ], [ 92.1502975, 21.2021937 ], [ 92.1502814, 21.2022175 ], [ 92.1502666, 21.2022437 ], [ 92.1502378, 21.202255 ] ] } },
{ "type": "Feature", "properties": { "osm_id": 553728218, "tag_value": "residential" }, "geometry": { "type": "LineString", "coordinates": [ [ 92.1506462, 21.201276 ], [ 92.1506622, 21.2013222 ], [ 92.1506716, 21.2013572 ], [ 92.1506884, 21.2013885 ], [ 92.1506985, 21.2014098 ], [ 92.1507038, 21.2014497 ], [ 92.1507132, 21.2014835 ], [ 92.150728, 21.2015273 ], [ 92.1507467, 21.2015573 ], [ 92.1507615, 21.2015892 ], [ 92.1507896, 21.2016386 ], [ 92.1508205, 21.2016923 ], [ 92.1508359, 21.2017232 ], [ 92.1508487, 21.2017486 ], [ 92.1508768, 21.2018024 ], [ 92.1509077, 21.2018611 ], [ 92.1509586, 21.2019486 ], [ 92.1509831, 21.2020087 ], [ 92.1509935, 21.202033 ], [ 92.1510042, 21.2020602 ], [ 92.151023, 21.2020812 ], [ 92.1510408, 21.2021184 ], [ 92.1510606, 21.2021631 ], [ 92.1510766, 21.2021918 ], [ 92.1510901, 21.2022206 ], [ 92.1511041, 21.2022431 ], [ 92.1511155, 21.2022694 ] ] } },
{ "type": "Feature", "properties": { "osm_id": 553728219, "tag_value": "path" }, "geometry": { "type": "LineString", "coordinates": [ [ 92.150052, 21.2013179 ], [ 92.150048, 21.2012872 ], [ 92.1500507, 21.201246 ], [ 92.1500601, 21.2012084 ], [ 92.1500708, 21.2011659 ], [ 92.1500628, 21.2011434 ], [ 92.1500762, 21.2011197 ], [ 92.1501057, 21.2010984 ], [ 92.1501473, 21.2010772 ], [ 92.1501902, 21.2010647 ], [ 92.1502277, 21.2010547 ], [ 92.1502706, 21.2010584 ], [ 92.1503095, 21.2010697 ], [ 92.150331, 21.2010859 ], [ 92.1503632, 21.2010859 ], [ 92.1504007, 21.2010847 ], [ 92.150449, 21.2010609 ] ] } },
{ "type": "Feature", "properties": { "osm_id": 553728220, "tag_value": "path" }, "geometry": { "type": "LineString", "coordinates": [ [ 92.150964, 21.2010785 ], [ 92.1509687, 21.2011265 ], [ 92.1509627, 21.2011528 ], [ 92.1509627, 21.2011809 ], [ 92.1509673, 21.2012241 ], [ 92.1509613, 21.2012472 ], [ 92.1509385, 21.2012697 ], [ 92.1509211, 21.2012985 ], [ 92.1509197, 21.201331 ], [ 92.1509211, 21.2013585 ], [ 92.1509264, 21.201391 ], [ 92.1509211, 21.2014135 ], [ 92.150909, 21.2014323 ], [ 92.1508862, 21.201461 ], [ 92.1508802, 21.2014731 ], [ 92.1508768, 21.2014798 ], [ 92.1508487, 21.201496 ], [ 92.1508151, 21.201516 ], [ 92.1507816, 21.2015385 ], [ 92.1507467, 21.2015573 ], [ 92.1506983, 21.2015663 ], [ 92.1506824, 21.201571 ], [ 92.1506193, 21.2015735 ], [ 92.150567, 21.2015735 ], [ 92.1505241, 21.201576 ], [ 92.1504785, 21.201591 ], [ 92.1504396, 21.2015998 ], [ 92.150398, 21.2015973 ], [ 92.1503578, 21.2015873 ], [ 92.1503122, 21.2015885 ], [ 92.150276, 21.2016048 ], [ 92.1502237, 21.2016436 ], [ 92.1501955, 21.2016548 ], [ 92.1501754, 21.2016473 ], [ 92.1501727, 21.2016298 ], [ 92.1501432, 21.2016286 ], [ 92.1501365, 21.2016086 ], [ 92.1501137, 21.2015935 ], [ 92.1500869, 21.2015948 ], [ 92.1500735, 21.2015735 ], [ 92.1500614, 21.201541 ], [ 92.1500413, 21.201511 ], [ 92.1500212, 21.201471 ], [ 92.1500145, 21.2014398 ], [ 92.1499882, 21.201395 ], [ 92.1499743, 21.2013703 ], [ 92.1499657, 21.2013433 ] ] } },
{ "type": "Feature", "properties": { "osm_id": 553728221, "tag_value": "residential" }, "geometry": { "type": "LineString", "coordinates": [ [ 92.1513535, 21.2010006 ], [ 92.1512831, 21.2010044 ], [ 92.1512197, 21.2010181 ], [ 92.1510872, 21.2010518 ], [ 92.150964, 21.2010785 ], [ 92.1509157, 21.2010947 ], [ 92.1508936, 21.2010996 ], [ 92.15084, 21.2011203 ], [ 92.1507959, 21.201152 ], [ 92.1507764, 21.2011542 ], [ 92.1507603, 21.2011583 ], [ 92.1507441, 21.2011609 ], [ 92.1507373, 21.2011622 ], [ 92.1507221, 21.2011647 ], [ 92.1507018, 21.2011684 ], [ 92.150675, 21.201176 ], [ 92.1506406, 21.2011922 ], [ 92.1506062, 21.2011983 ] ] } },
{ "type": "Feature", "properties": { "osm_id": 553728222, "tag_value": "path" }, "geometry": { "type": "LineString", "coordinates": [ [ 92.1493628, 21.2013484 ], [ 92.1493547, 21.2011516 ], [ 92.1493533, 21.2011253 ], [ 92.149352, 21.2011003 ], [ 92.1493513, 21.2010559 ], [ 92.14935, 21.2010078 ], [ 92.1493359, 21.2009784 ], [ 92.1493386, 21.2009459 ], [ 92.1493225, 21.2009184 ], [ 92.1492742, 21.2009184 ], [ 92.149234, 21.2009084 ], [ 92.1491843, 21.2009184 ], [ 92.1490791, 21.2009321 ], [ 92.1490381, 21.2009278 ], [ 92.1489872, 21.2009293 ], [ 92.1489506, 21.2009197 ], [ 92.1489278, 21.2009181 ] ] } },
{ "type": "Feature", "properties": { "osm_id": 553728223, "tag_value": "path" }, "geometry": { "type": "LineString", "coordinates": [ [ 92.1502237, 21.200652 ], [ 92.1503672, 21.2006245 ] ] } },
{ "type": "Feature", "properties": { "osm_id": 553728224, "tag_value": "path" }, "geometry": { "type": "LineString", "coordinates": [ [ 92.1501928, 21.200717 ], [ 92.1502237, 21.200652 ] ] } },
{ "type": "Feature", "properties": { "osm_id": 553728800, "tag_value": "path" }, "geometry": { "type": "LineString", "coordinates": [ [ 92.1508359, 21.2017232 ], [ 92.1507977, 21.2017348 ], [ 92.1507548, 21.2017586 ], [ 92.1507172, 21.2017698 ], [ 92.1506904, 21.2017523 ], [ 92.1506542, 21.2017561 ], [ 92.1506461, 21.2017886 ], [ 92.1506555, 21.2018211 ], [ 92.1506582, 21.2018711 ], [ 92.1506596, 21.2019174 ], [ 92.1506582, 21.2019686 ], [ 92.1506555, 21.2020087 ], [ 92.1506394, 21.2020449 ], [ 92.1506421, 21.2020874 ], [ 92.1506689, 21.2021224 ], [ 92.1507038, 21.2021499 ], [ 92.1507387, 21.2021712 ], [ 92.1507546, 21.2021791 ] ] } },
{ "type": "Feature", "properties": { "osm_id": 553869503, "tag_value": "path" }, "geometry": { "type": "LineString", "coordinates": [ [ 92.1509264, 21.201391 ], [ 92.1509452, 21.2013435 ], [ 92.1509694, 21.2013122 ], [ 92.151019, 21.2012947 ], [ 92.1510512, 21.2012972 ], [ 92.1510847, 21.2012897 ], [ 92.1511129, 21.2013035 ], [ 92.1511397, 21.2012997 ], [ 92.1511745, 21.201306 ], [ 92.1511973, 21.2013347 ], [ 92.1512121, 21.201356 ], [ 92.1512429, 21.2013672 ], [ 92.1512604, 21.201396 ], [ 92.1512738, 21.201431 ], [ 92.1512952, 21.2014423 ], [ 92.1513301, 21.201461 ], [ 92.1513475, 21.2014798 ], [ 92.1513596, 21.2014973 ], [ 92.1513489, 21.2015173 ], [ 92.1513529, 21.201546 ], [ 92.1513475, 21.2015798 ] ] } },
{ "type": "Feature", "properties": { "osm_id": 553869504, "tag_value": "path" }, "geometry": { "type": "LineString", "coordinates": [ [ 92.151373, 21.2017536 ], [ 92.1513905, 21.2017961 ], [ 92.1513931, 21.2018386 ], [ 92.1513905, 21.2018799 ], [ 92.1513838, 21.2019299 ], [ 92.1513596, 21.2019787 ], [ 92.1513315, 21.2019962 ], [ 92.151314, 21.2020337 ], [ 92.1512872, 21.2020512 ] ] } },
{ "type": "Feature", "properties": { "osm_id": 553869508, "tag_value": "path" }, "geometry": { "type": "LineString", "coordinates": [ [ 92.1503659, 21.2018899 ], [ 92.1503954, 21.2019099 ], [ 92.1504115, 21.2019436 ], [ 92.1504356, 21.2019699 ], [ 92.1504557, 21.2019736 ], [ 92.1504718, 21.2019736 ], [ 92.1504825, 21.2019912 ], [ 92.1505147, 21.2019924 ], [ 92.150559, 21.2019761 ], [ 92.1505697, 21.2019511 ], [ 92.1505992, 21.2019311 ], [ 92.1506314, 21.2019274 ], [ 92.1506596, 21.2019174 ] ] } },
{ "type": "Feature", "properties": { "osm_id": 553869510, "tag_value": "path" }, "geometry": { "type": "LineString", "coordinates": [ [ 92.1509157, 21.2017348 ], [ 92.1509425, 21.2017398 ], [ 92.1509747, 21.2017323 ], [ 92.1510176, 21.2017523 ], [ 92.1510391, 21.2017598 ], [ 92.1510524, 21.2017626 ], [ 92.1511155, 21.2017761 ] ] } },
{ "type": "Feature", "properties": { "osm_id": 553869511, "tag_value": "path" }, "geometry": { "type": "LineString", "coordinates": [ [ 92.1517338, 21.2022075 ], [ 92.151766, 21.2021574 ], [ 92.1517727, 21.2021249 ], [ 92.1517901, 21.2020849 ], [ 92.1518143, 21.2020474 ], [ 92.1518357, 21.2019962 ], [ 92.1518451, 21.2019499 ], [ 92.151837, 21.2019186 ], [ 92.1518317, 21.2018811 ], [ 92.1518236, 21.2018411 ], [ 92.1518263, 21.2018061 ], [ 92.1518236, 21.2017673 ], [ 92.151829, 21.2017298 ], [ 92.151833, 21.2017048 ] ] } },
{ "type": "Feature", "properties": { "osm_id": 553869514, "tag_value": "path" }, "geometry": { "type": "LineString", "coordinates": [ [ 92.1511249, 21.2016036 ], [ 92.1511303, 21.2016598 ], [ 92.1511271, 21.2016971 ], [ 92.1511263, 21.2017061 ], [ 92.1511249, 21.2017423 ], [ 92.1511155, 21.2017761 ], [ 92.1511276, 21.2017949 ], [ 92.1511531, 21.2017986 ], [ 92.1511719, 21.2018136 ], [ 92.1511786, 21.2018461 ], [ 92.1511906, 21.2018724 ], [ 92.1512014, 21.2018961 ], [ 92.1512054, 21.2019311 ], [ 92.1512175, 21.2019536 ], [ 92.1512416, 21.2019661 ], [ 92.1512496, 21.2019862 ], [ 92.1512657, 21.2020162 ], [ 92.1512872, 21.2020512 ], [ 92.1513087, 21.2020824 ], [ 92.1513355, 21.2021474 ], [ 92.1513516, 21.202215 ], [ 92.1513408, 21.20229 ], [ 92.1513328, 21.2023375 ], [ 92.1513087, 21.2023875 ] ] } },
{ "type": "Feature", "properties": { "osm_id": 553869522, "tag_value": "path" }, "geometry": { "type": "LineString", "coordinates": [ [ 92.1514944, 21.2003269 ], [ 92.1515172, 21.2003169 ], [ 92.1515473, 21.2002807 ], [ 92.1515836, 21.2002806 ], [ 92.1516144, 21.2002782 ], [ 92.1516601, 21.2002748 ], [ 92.1516839, 21.2002832 ], [ 92.1517043, 21.2002941 ] ] } },
{ "type": "Feature", "properties": { "osm_id": 553869523, "tag_value": "path" }, "geometry": { "type": "LineString", "coordinates": [ [ 92.1515872, 21.199172 ], [ 92.1516023, 21.1992001 ], [ 92.1516181, 21.1992298 ], [ 92.1516418, 21.1992499 ], [ 92.1516698, 21.1992769 ], [ 92.1516835, 21.1992911 ], [ 92.1516996, 21.1993003 ], [ 92.1517198, 21.1993021 ], [ 92.1517648, 21.1992594 ] ] } },
{ "type": "Feature", "properties": { "osm_id": 553869524, "tag_value": "path" }, "geometry": { "type": "LineString", "coordinates": [ [ 92.1488947, 21.2002626 ], [ 92.1489161, 21.2002232 ], [ 92.1489215, 21.2001919 ], [ 92.1489255, 21.2001607 ], [ 92.1489161, 21.2001332 ], [ 92.1489, 21.2001107 ], [ 92.1488933, 21.2000881 ], [ 92.1489041, 21.2000706 ], [ 92.1489269, 21.2000569 ], [ 92.1489537, 21.2000494 ], [ 92.1489966, 21.2000419 ], [ 92.1490422, 21.2000444 ], [ 92.1490878, 21.2000419 ], [ 92.1491267, 21.2000369 ], [ 92.1491495, 21.2000194 ], [ 92.1491629, 21.1999981 ], [ 92.1491602, 21.1999819 ], [ 92.1491508, 21.1999619 ], [ 92.1491561, 21.1999394 ], [ 92.1491763, 21.1999156 ], [ 92.1491843, 21.1998831 ], [ 92.1491709, 21.1998581 ], [ 92.1491709, 21.1998331 ], [ 92.1491991, 21.1998206 ] ] } },
{ "type": "Feature", "properties": { "osm_id": 553869525, "tag_value": "path" }, "geometry": { "type": "LineString", "coordinates": [ [ 92.1491696, 21.2003357 ], [ 92.1491924, 21.2003007 ], [ 92.1491964, 21.2002819 ], [ 92.1492004, 21.2002594 ], [ 92.1492206, 21.2002369 ], [ 92.1492098, 21.2002069 ], [ 92.1491951, 21.2001682 ], [ 92.149179, 21.2001351 ] ] } },
{ "type": "Feature", "properties": { "osm_id": 553869526, "tag_value": "path" }, "geometry": { "type": "LineString", "coordinates": [ [ 92.1494384, 21.2004048 ], [ 92.1494606, 21.2003507 ], [ 92.1494713, 21.200327 ], [ 92.1494945, 21.2003026 ], [ 92.1495263, 21.2002501 ], [ 92.1495511, 21.2002307 ], [ 92.1496323, 21.2002607 ], [ 92.1496658, 21.2002682 ], [ 92.149698, 21.2002694 ], [ 92.1497275, 21.2002694 ], [ 92.1497557, 21.2002794 ], [ 92.1497637, 21.2003007 ], [ 92.1497878, 21.200312 ], [ 92.1498093, 21.2003257 ], [ 92.149808, 21.2003532 ], [ 92.1498026, 21.2003682 ], [ 92.1498106, 21.2003795 ], [ 92.1498053, 21.200397 ], [ 92.1497999, 21.2004095 ], [ 92.149812, 21.2004295 ], [ 92.1498401, 21.2004545 ], [ 92.1498562, 21.2004833 ], [ 92.1498589, 21.2005238 ], [ 92.1498435, 21.2005783 ] ] } },
{ "type": "Feature", "properties": { "osm_id": 553869531, "tag_value": "path" }, "geometry": { "type": "LineString", "coordinates": [ [ 92.1490596, 21.1999181 ], [ 92.149061, 21.1998868 ], [ 92.1490502, 21.1998593 ], [ 92.1490663, 21.1998356 ], [ 92.1491012, 21.1998118 ], [ 92.1491401, 21.1997931 ], [ 92.149175, 21.1997693 ], [ 92.1491911, 21.1997443 ], [ 92.1491951, 21.1997055 ] ] } },
{ "type": "Feature", "properties": { "osm_id": 555504848, "tag_value": "residential" }, "geometry": { "type": "LineString", "coordinates": [ [ 92.1502452, 21.200872 ], [ 92.1502398, 21.2008484 ], [ 92.150217, 21.2007695 ], [ 92.1501928, 21.200717 ] ] } },
{ "type": "Feature", "properties": { "osm_id": 555663607, "tag_value": "path" }, "geometry": { "type": "LineString", "coordinates": [ [ 92.1508802, 21.2014731 ], [ 92.1509546, 21.2015173 ] ] } },
{ "type": "Feature", "properties": { "osm_id": 556444700, "tag_value": "path" }, "geometry": { "type": "LineString", "coordinates": [ [ 92.150398, 21.2015973 ], [ 92.1504034, 21.2015729 ], [ 92.1504054, 21.2015373 ], [ 92.1504048, 21.2015092 ], [ 92.1504121, 21.201491 ], [ 92.1504121, 21.2014485 ], [ 92.1503994, 21.2014066 ], [ 92.1504336, 21.2013704 ], [ 92.1504597, 21.201341 ], [ 92.1505241, 21.2013391 ], [ 92.1505596, 21.2013285 ], [ 92.150616, 21.2013041 ], [ 92.1506462, 21.201276 ] ] } },
{ "type": "Feature", "properties": { "osm_id": 556447442, "tag_value": "path" }, "geometry": { "type": "LineString", "coordinates": [ [ 92.1511705, 21.2016011 ], [ 92.1512282, 21.2016511 ], [ 92.1512429, 21.2017061 ], [ 92.1512792, 21.2018111 ] ] } },
{ "type": "Feature", "properties": { "osm_id": 556456557, "tag_value": "path" }, "geometry": { "type": "LineString", "coordinates": [ [ 92.1523065, 21.198818 ], [ 92.152234, 21.1988415 ], [ 92.1520972, 21.1989016 ], [ 92.1519675, 21.1989947 ], [ 92.1518612, 21.1990891 ] ] } },
{ "type": "Feature", "properties": { "osm_id": 556456559, "tag_value": "path" }, "geometry": { "type": "LineString", "coordinates": [ [ 92.1519759, 21.1992117 ], [ 92.1519417, 21.1992654 ], [ 92.151937, 21.1993073 ], [ 92.1519611, 21.1993992 ], [ 92.1520054, 21.1994836 ], [ 92.1520711, 21.1995389 ], [ 92.152115, 21.1995611 ], [ 92.1522226, 21.1996205 ], [ 92.1523244, 21.1996052 ] ] } },
{ "type": "Feature", "properties": { "osm_id": 556456561, "tag_value": "steps" }, "geometry": { "type": "LineString", "coordinates": [ [ 92.1511748, 21.1993096 ], [ 92.1512026, 21.199281 ], [ 92.1512728, 21.1992526 ] ] } },
{ "type": "Feature", "properties": { "osm_id": 556456562, "tag_value": "residential" }, "geometry": { "type": "LineString", "coordinates": [ [ 92.1511129, 21.1993492 ], [ 92.1511839, 21.1993967 ], [ 92.151373, 21.1995718 ], [ 92.1513998, 21.1996105 ], [ 92.1514294, 21.199673 ], [ 92.1514803, 21.1997793 ], [ 92.1515071, 21.1999962 ] ] } },
{ "type": "Feature", "properties": { "osm_id": 556456563, "tag_value": "path" }, "geometry": { "type": "LineString", "coordinates": [ [ 92.1508326, 21.1988102 ], [ 92.1508949, 21.1988497 ], [ 92.150954, 21.1988903 ], [ 92.1510082, 21.1989297 ], [ 92.1510398, 21.1989666 ], [ 92.1510565, 21.1990022 ], [ 92.1510679, 21.1990479 ], [ 92.151074, 21.199091 ], [ 92.151082, 21.1991235 ], [ 92.1510947, 21.1991429 ], [ 92.1511175, 21.1991497 ], [ 92.1511491, 21.1991573 ], [ 92.151204, 21.1991654 ], [ 92.1512308, 21.1991935 ], [ 92.151261, 21.1992123 ], [ 92.1512728, 21.1992526 ] ] } },
{ "type": "Feature", "properties": { "osm_id": 556526314, "tag_value": "path" }, "geometry": { "type": "LineString", "coordinates": [ [ 92.1515737, 21.2012963 ], [ 92.151656, 21.2013311 ], [ 92.1517204, 21.2013504 ], [ 92.1517901, 21.2013636 ] ] } },
{ "type": "Feature", "properties": { "osm_id": 556526317, "tag_value": "path" }, "geometry": { "type": "LineString", "coordinates": [ [ 92.1505402, 21.2017943 ], [ 92.1506232, 21.201758 ], [ 92.1506542, 21.2017561 ] ] } },
{ "type": "Feature", "properties": { "osm_id": 557700445, "tag_value": "path" }, "geometry": { "type": "LineString", "coordinates": [ [ 92.1505402, 21.2017943 ], [ 92.1505393, 21.2018281 ], [ 92.1505018, 21.2018618 ], [ 92.1504756, 21.2018662 ], [ 92.1503864, 21.2017855 ] ] } },
{ "type": "Feature", "properties": { "osm_id": 562919356, "tag_value": "steps" }, "geometry": { "type": "LineString", "coordinates": [ [ 92.149702, 21.1999906 ], [ 92.1496698, 21.2000006 ] ] } },
{ "type": "Feature", "properties": { "osm_id": 562919357, "tag_value": "path" }, "geometry": { "type": "LineString", "coordinates": [ [ 92.1499313, 21.1998668 ], [ 92.149702, 21.1999906 ] ] } },
{ "type": "Feature", "properties": { "osm_id": 562919358, "tag_value": "steps" }, "geometry": { "type": "LineString", "coordinates": [ [ 92.1502827, 21.1996643 ], [ 92.1501547, 21.1997336 ], [ 92.1500775, 21.1997899 ], [ 92.1500306, 21.1998181 ], [ 92.1499313, 21.1998668 ] ] } },
{ "type": "Feature", "properties": { "osm_id": 563098185, "tag_value": "residential" }, "geometry": { "type": "LineString", "coordinates": [ [ 92.1501359, 21.1994505 ], [ 92.1501694, 21.1994161 ], [ 92.1502062, 21.1993942 ], [ 92.1502515, 21.1993749 ], [ 92.1502966, 21.1993551 ], [ 92.1503289, 21.1993387 ], [ 92.150354, 21.1993203 ], [ 92.150395, 21.1992857 ], [ 92.1504512, 21.1992287 ], [ 92.1504842, 21.1991952 ], [ 92.1505395, 21.1991444 ], [ 92.1505722, 21.1991195 ], [ 92.1506113, 21.199096 ], [ 92.1506499, 21.1990805 ], [ 92.1507313, 21.1990754 ], [ 92.1507601, 21.1990816 ], [ 92.150793, 21.1991141 ], [ 92.1508393, 21.1991454 ], [ 92.1508802, 21.1991741 ], [ 92.1509586, 21.199246 ], [ 92.1509962, 21.1992879 ], [ 92.1510498, 21.1993173 ], [ 92.1511129, 21.1993492 ] ] } },
{ "type": "Feature", "properties": { "osm_id": 642826503, "tag_value": "steps" }, "geometry": { "type": "LineString", "coordinates": [ [ 92.1497979, 21.1993723 ], [ 92.1498566, 21.199395 ] ] } },
{ "type": "Feature", "properties": { "osm_id": 642826504, "tag_value": "path" }, "geometry": { "type": "LineString", "coordinates": [ [ 92.1491877, 21.1983977 ], [ 92.1492078, 21.1984158 ], [ 92.1492232, 21.1984471 ], [ 92.1492547, 21.1985083 ], [ 92.1492702, 21.198549 ], [ 92.149285, 21.1985721 ], [ 92.149305, 21.1985934 ], [ 92.1493305, 21.1986102 ], [ 92.1493573, 21.1986265 ], [ 92.1493842, 21.1986365 ], [ 92.1494211, 21.1986452 ], [ 92.1494573, 21.1986477 ], [ 92.1494807, 21.1986584 ], [ 92.1495391, 21.1987174 ], [ 92.1495662, 21.1987496 ], [ 92.1496082, 21.1988094 ], [ 92.1496232, 21.198834 ], [ 92.1496363, 21.1988582 ], [ 92.149644, 21.198881 ], [ 92.1496491, 21.1989081 ], [ 92.1496524, 21.1989334 ], [ 92.1496561, 21.1989687 ], [ 92.1496665, 21.1990184 ], [ 92.1497262, 21.1992173 ], [ 92.149759, 21.1993285 ], [ 92.1497784, 21.1993573 ], [ 92.1497979, 21.1993723 ] ] } },
{ "type": "Feature", "properties": { "osm_id": 642826508, "tag_value": "path" }, "geometry": { "type": "LineString", "coordinates": [ [ 92.1519832, 21.2007782 ], [ 92.1520583, 21.2007352 ], [ 92.1520523, 21.2006358 ], [ 92.1520463, 21.2005358 ], [ 92.1520812, 21.2004357 ], [ 92.152122, 21.2003713 ], [ 92.1521536, 21.2003363 ], [ 92.1521603, 21.2002257 ] ] } },
{ "type": "Feature", "properties": { "osm_id": 642826509, "tag_value": "path" }, "geometry": { "type": "LineString", "coordinates": [ [ 92.1519249, 21.2008583 ], [ 92.1519832, 21.2007782 ] ] } },
{ "type": "Feature", "properties": { "osm_id": 642826518, "tag_value": "residential" }, "geometry": { "type": "LineString", "coordinates": [ [ 92.1515071, 21.1999962 ], [ 92.1514964, 21.2000187 ], [ 92.1514858, 21.2000369 ], [ 92.1514656, 21.2000625 ], [ 92.1514396, 21.2000888 ], [ 92.1513858, 21.2001244 ], [ 92.1513028, 21.2001874 ] ] } },
{ "type": "Feature", "properties": { "osm_id": 642826556, "tag_value": "path" }, "geometry": { "type": "LineString", "coordinates": [ [ 92.1511129, 21.1993492 ], [ 92.1511748, 21.1993096 ] ] } },
{ "type": "Feature", "properties": { "osm_id": 642826557, "tag_value": "path" }, "geometry": { "type": "LineString", "coordinates": [ [ 92.1512728, 21.1992526 ], [ 92.15155, 21.1991941 ] ] } },
{ "type": "Feature", "properties": { "osm_id": 685556561, "tag_value": "path" }, "geometry": { "type": "LineString", "coordinates": [ [ 92.15155, 21.1991941 ], [ 92.1515872, 21.199172 ] ] } },
{ "type": "Feature", "properties": { "osm_id": 685556564, "tag_value": "path" }, "geometry": { "type": "LineString", "coordinates": [ [ 92.1515872, 21.199172 ], [ 92.1515507, 21.1991466 ], [ 92.1515507, 21.1991223 ], [ 92.1515641, 21.1991113 ], [ 92.151598, 21.1991004 ], [ 92.1516282, 21.1990844 ], [ 92.1516134, 21.1990616 ], [ 92.1516302, 21.1990538 ], [ 92.1516667, 21.1990423 ] ] } },
{ "type": "Feature", "properties": { "osm_id": 1368809201, "tag_value": "path" }, "geometry": { "type": "LineString", "coordinates": [ [ 92.1503672, 21.2006245 ], [ 92.150445, 21.2005939 ], [ 92.150506, 21.2005315 ], [ 92.1505429, 21.2004572 ], [ 92.1505885, 21.2004465 ] ] } },
{ "type": "Feature", "properties": { "osm_id": 1368810323, "tag_value": "path" }, "geometry": { "type": "LineString", "coordinates": [ [ 92.1513455, 21.2003282 ], [ 92.1513744, 21.2003126 ], [ 92.1514629, 21.2003282 ], [ 92.1514944, 21.2003269 ] ] } },
{ "type": "Feature", "properties": { "osm_id": 1369993607, "tag_value": "residential" }, "geometry": { "type": "LineString", "coordinates": [ [ 92.1466279, 21.2006807 ], [ 92.1470372, 21.2007671 ], [ 92.1474168, 21.2008059 ], [ 92.1476608, 21.2008309 ], [ 92.1481074, 21.2008109 ], [ 92.1482281, 21.2008046 ], [ 92.1484159, 21.2008121 ], [ 92.1485393, 21.2008133 ], [ 92.1486023, 21.2008008 ], [ 92.1488062, 21.2007208 ], [ 92.1488893, 21.2006933 ], [ 92.1489644, 21.2006958 ], [ 92.1490449, 21.2007133 ], [ 92.1496296, 21.2009109 ], [ 92.1497422, 21.2009346 ], [ 92.1498522, 21.2009546 ], [ 92.1500319, 21.2009446 ], [ 92.150279, 21.2009079 ], [ 92.1504087, 21.2008959 ], [ 92.1506609, 21.2008909 ], [ 92.1508808, 21.2008721 ], [ 92.1512403, 21.2008046 ], [ 92.1514481, 21.2008158 ], [ 92.1515571, 21.2008534 ], [ 92.1516693, 21.2008921 ], [ 92.1517982, 21.2009503 ], [ 92.1519584, 21.2009602 ], [ 92.1520386, 21.2009579 ], [ 92.1522327, 21.2009334 ], [ 92.1524794, 21.2009009 ], [ 92.1525921, 21.2008771 ], [ 92.152694, 21.2008646 ], [ 92.1529327, 21.2008158 ], [ 92.1531694, 21.2007596 ], [ 92.1534916, 21.2006675 ], [ 92.1535485, 21.2006514 ], [ 92.1538191, 21.2005749 ], [ 92.1541783, 21.2004732 ], [ 92.1544538, 21.2004036 ], [ 92.1545001, 21.2003942 ], [ 92.1546218, 21.2003895 ], [ 92.1546993, 21.200395 ], [ 92.1548187, 21.200431 ], [ 92.1548794, 21.2005076 ], [ 92.1549126, 21.2006158 ], [ 92.1549364, 21.2006556 ], [ 92.1549534, 21.2006721 ], [ 92.1550023, 21.200692 ], [ 92.155121, 21.2007339 ], [ 92.1552552, 21.2007636 ] ] } },
{ "type": "Feature", "properties": { "osm_id": 1373411366, "tag_value": "path" }, "geometry": { "type": "LineString", "coordinates": [ [ 92.1519675, 21.1989947 ], [ 92.1519879, 21.1990085 ], [ 92.1520248, 21.1990372 ], [ 92.1520825, 21.1990616 ] ] } },
{ "type": "Feature", "properties": { "osm_id": 1373411367, "tag_value": "path" }, "geometry": { "type": "LineString", "coordinates": [ [ 92.1529173, 21.1983539 ], [ 92.1529341, 21.1985802 ], [ 92.1529287, 21.1985952 ], [ 92.1528409, 21.1986115 ], [ 92.1527866, 21.1986215 ], [ 92.1527155, 21.1986059 ], [ 92.1526779, 21.1986084 ], [ 92.1526169, 21.1986402 ], [ 92.1525767, 21.1986421 ], [ 92.152517, 21.1986259 ], [ 92.1524459, 21.1986309 ], [ 92.1523601, 21.1986484 ], [ 92.1523051, 21.1986446 ], [ 92.1522367, 21.1986315 ], [ 92.1521717, 21.1986434 ], [ 92.1520939, 21.198679 ], [ 92.1520332, 21.1987326 ], [ 92.1520315, 21.1987934 ], [ 92.1519886, 21.1987959 ], [ 92.1519646, 21.1988033 ], [ 92.1519531, 21.1988165 ], [ 92.1519276, 21.1988503 ], [ 92.1519128, 21.1989084 ], [ 92.1519088, 21.1989187 ], [ 92.1518263, 21.1989916 ], [ 92.1518169, 21.1990178 ] ] } },
{ "type": "Feature", "properties": { "osm_id": 1548755311, "tag_value": "residential" }, "geometry": { "type": "LineString", "coordinates": [ [ 92.1514445, 21.2006986 ], [ 92.1514355, 21.2006261 ], [ 92.1514314, 21.2005845 ], [ 92.1514213, 21.2005379 ], [ 92.1514023, 21.2005004 ], [ 92.1513817, 21.200457 ], [ 92.1513654, 21.2004133 ], [ 92.1513524, 21.2003773 ], [ 92.1513455, 21.2003282 ], [ 92.1513361, 21.2002988 ], [ 92.1513247, 21.2002482 ], [ 92.1513174, 21.2002126 ], [ 92.1513028, 21.2001874 ] ] } },
{ "type": "Feature", "properties": { "osm_id": 1548757034, "tag_value": "residential" }, "geometry": { "type": "LineString", "coordinates": [ [ 92.1501928, 21.200717 ], [ 92.1501245, 21.2006883 ], [ 92.1500366, 21.2006595 ], [ 92.1499629, 21.2006395 ], [ 92.1499018, 21.2006227 ], [ 92.1498435, 21.2005783 ], [ 92.1497798, 21.2005308 ], [ 92.1497168, 21.2005095 ], [ 92.1496028, 21.2004564 ], [ 92.1495525, 21.2004376 ], [ 92.1495149, 21.2004201 ], [ 92.1494861, 21.2004126 ], [ 92.1494626, 21.2004101 ], [ 92.1494384, 21.2004048 ], [ 92.1493996, 21.2003957 ], [ 92.1492735, 21.2003701 ], [ 92.1491696, 21.2003357 ], [ 92.1491039, 21.2003245 ], [ 92.1489832, 21.2002951 ], [ 92.1488947, 21.2002626 ], [ 92.1488417, 21.2002551 ], [ 92.1487941, 21.2002419 ], [ 92.1487277, 21.2002238 ], [ 92.1486472, 21.2001688 ], [ 92.1487323, 21.2000344 ], [ 92.1487471, 21.1999637 ], [ 92.1487525, 21.1999 ], [ 92.1487303, 21.1998586 ], [ 92.1487177, 21.1998118 ], [ 92.1486969, 21.1997249 ], [ 92.1486935, 21.1996599 ], [ 92.1487076, 21.1996149 ], [ 92.1487458, 21.1995492 ], [ 92.1487498, 21.1994967 ], [ 92.1487566, 21.1994267 ], [ 92.1487445, 21.1993892 ], [ 92.148719, 21.1992955 ], [ 92.1487117, 21.1992756 ], [ 92.1486943, 21.1992286 ], [ 92.1486788, 21.1991866 ], [ 92.1486529, 21.1990927 ] ] } },
{ "type": "Feature", "properties": { "osm_id": 1548991423, "tag_value": "residential" }, "geometry": { "type": "LineString", "coordinates": [ [ 92.1516693, 21.2008921 ], [ 92.1516359, 21.2009621 ], [ 92.151613, 21.2010196 ] ] } }
]
}
